[{"OBJECT_NAME":"STARLINK-34144","OBJECT_ID":"2025-099G","EPOCH":"2025-12-16T06:01:02.884512","MEAN_MOTION":15.27605136,"ECCENTRICITY":0.00012927,"INCLINATION":43.0002,"RA_OF_ASC_NODE":287.5956,"ARG_OF_PERICENTER":269.7619,"MEAN_ANOMALY":90.3084,"EPHEMERIS_TYPE":0,"CLASSIFICATION_TYPE":"U","NORAD_CAT_ID":63958,"ELEMENT_SET_NO":999,"REV_AT_EPOCH":3457,"BSTAR":0.00082631966,"MEAN_MOTION_DOT":0.00022563,"MEAN_MOTION_DDOT":0},{"OBJECT_NAME":"STARLINK-34099","OBJECT_ID":"2025-099H","EPOCH":"2025-12-16T04:43:32.816640","MEAN_MOTION":15.27608743,"ECCENTRICITY":7.822e-5,"INCLINATION":43.0001,"RA_OF_ASC_NODE":288.0501,"ARG_OF_PERICENTER":296.8375,"MEAN_ANOMALY":63.2397,"EPHEMERIS_TYPE":0,"CLASSIFICATION_TYPE":"U","NORAD_CAT_ID":63959,"ELEMENT_SET_NO":999,"REV_AT_EPOCH":3456,"BSTAR":0.00058853937,"MEAN_MOTION_DOT":0.00015982,"MEAN_MOTION_DDOT":0},{"OBJECT_NAME":"STARLINK-34107","OBJECT_ID":"2025-099J","EPOCH":"2025-12-16T04:21:20.462976","MEAN_MOTION":15.27596927,"ECCENTRICITY":0.00013356,"INCLINATION":42.9993,"RA_OF_ASC_NODE":287.9352,"ARG_OF_PERICENTER":260.4013,"MEAN_ANOMALY":99.6688,"EPHEMERIS_TYPE":0,"CLASSIFICATION_TYPE":"U","NORAD_CAT_ID":63960,"ELEMENT_SET_NO":999,"REV_AT_EPOCH":3456,"BSTAR":0.00062874143,"MEAN_MOTION_DOT":0.00017089,"MEAN_MOTION_DDOT":0},{"OBJECT_NAME":"STARLINK-34121","OBJECT_ID":"2025-099K","EPOCH":"2025-12-16T05:46:14.682144","MEAN_MOTION":15.27603132,"ECCENTRICITY":0.00014939,"INCLINATION":43.0006,"RA_OF_ASC_NODE":287.5166,"ARG_OF_PERICENTER":271.8986,"MEAN_ANOMALY":88.1695,"EPHEMERIS_TYPE":0,"CLASSIFICATION_TYPE":"U","NORAD_CAT_ID":63961,"ELEMENT_SET_NO":999,"REV_AT_EPOCH":3457,"BSTAR":0.00065890431,"MEAN_MOTION_DOT":0.00017926,"MEAN_MOTION_DDOT":0},{"OBJECT_NAME":"STARLINK-34103","OBJECT_ID":"2025-099L","EPOCH":"2025-12-16T04:06:32.390208","MEAN_MOTION":15.27607665,"ECCENTRICITY":0.00014695,"INCLINATION":43.0023,"RA_OF_ASC_NODE":287.8567,"ARG_OF_PERICENTER":276.7456,"MEAN_ANOMALY":83.3228,"EPHEMERIS_TYPE":0,"CLASSIFICATION_TYPE":"U","NORAD_CAT_ID":63962,"ELEMENT_SET_NO":999,"REV_AT_EPOCH":3456,"BSTAR":0.001034273,"MEAN_MOTION_DOT":0.00028332,"MEAN_MOTION_DDOT":0},{"OBJECT_NAME":"STARLINK-33801","OBJECT_ID":"2025-099M","EPOCH":"2025-12-16T05:29:35.562912","MEAN_MOTION":15.27605797,"ECCENTRICITY":0.00013352,"INCLINATION":43.0027,"RA_OF_ASC_NODE":287.4248,"ARG_OF_PERICENTER":277.0408,"MEAN_ANOMALY":83.0292,"EPHEMERIS_TYPE":0,"CLASSIFICATION_TYPE":"U","NORAD_CAT_ID":63963,"ELEMENT_SET_NO":999,"REV_AT_EPOCH":3457,"BSTAR":0.00068845396,"MEAN_MOTION_DOT":0.00018746,"MEAN_MOTION_DDOT":0},{"OBJECT_NAME":"STARLINK-34135","OBJECT_ID":"2025-099N","EPOCH":"2025-12-16T05:35:08.761056","MEAN_MOTION":15.2760478,"ECCENTRICITY":0.00013447,"INCLINATION":43.0016,"RA_OF_ASC_NODE":287.4566,"ARG_OF_PERICENTER":266.4264,"MEAN_ANOMALY":93.6434,"EPHEMERIS_TYPE":0,"CLASSIFICATION_TYPE":"U","NORAD_CAT_ID":63964,"ELEMENT_SET_NO":999,"REV_AT_EPOCH":3457,"BSTAR":0.00072611432,"MEAN_MOTION_DOT":0.00019788,"MEAN_MOTION_DDOT":0},{"OBJECT_NAME":"STARLINK-34147","OBJECT_ID":"2025-099P","EPOCH":"2025-12-16T05:24:02.649024","MEAN_MOTION":15.27602959,"ECCENTRICITY":0.0001204,"INCLINATION":43.0022,"RA_OF_ASC_NODE":287.3965,"ARG_OF_PERICENTER":282.5429,"MEAN_ANOMALY":77.5288,"EPHEMERIS_TYPE":0,"CLASSIFICATION_TYPE":"U","NORAD_CAT_ID":63965,"ELEMENT_SET_NO":999,"REV_AT_EPOCH":3457,"BSTAR":0.00062399015,"MEAN_MOTION_DOT":0.0001696,"MEAN_MOTION_DDOT":0},{"OBJECT_NAME":"STARLINK-33960","OBJECT_ID":"2025-099Q","EPOCH":"2025-12-16T05:18:30.196512","MEAN_MOTION":15.27580606,"ECCENTRICITY":0.00019672,"INCLINATION":43.0036,"RA_OF_ASC_NODE":287.3648,"ARG_OF_PERICENTER":267.1618,"MEAN_ANOMALY":92.9008,"EPHEMERIS_TYPE":0,"CLASSIFICATION_TYPE":"U","NORAD_CAT_ID":63966,"ELEMENT_SET_NO":999,"REV_AT_EPOCH":3457,"BSTAR":0.0010440798,"MEAN_MOTION_DOT":0.00028581,"MEAN_MOTION_DDOT":0},{"OBJECT_NAME":"STARLINK-34153","OBJECT_ID":"2025-099R","EPOCH":"2025-12-16T05:09:14.519232","MEAN_MOTION":15.27602448,"ECCENTRICITY":4.727e-5,"INCLINATION":42.9998,"RA_OF_ASC_NODE":287.3178,"ARG_OF_PERICENTER":306.6843,"MEAN_ANOMALY":53.3965,"EPHEMERIS_TYPE":0,"CLASSIFICATION_TYPE":"U","NORAD_CAT_ID":63967,"ELEMENT_SET_NO":999,"REV_AT_EPOCH":3457,"BSTAR":0.00076413335,"MEAN_MOTION_DOT":0.00020839,"MEAN_MOTION_DDOT":0},{"OBJECT_NAME":"STARLINK-33963","OBJECT_ID":"2025-099S","EPOCH":"2025-12-16T05:14:47.392512","MEAN_MOTION":15.27598233,"ECCENTRICITY":0.00011936,"INCLINATION":43.0032,"RA_OF_ASC_NODE":287.3461,"ARG_OF_PERICENTER":276.4528,"MEAN_ANOMALY":83.6188,"EPHEMERIS_TYPE":0,"CLASSIFICATION_TYPE":"U","NORAD_CAT_ID":63968,"ELEMENT_SET_NO":999,"REV_AT_EPOCH":3457,"BSTAR":0.00052374905,"MEAN_MOTION_DOT":0.00014186,"MEAN_MOTION_DDOT":0},{"OBJECT_NAME":"STARLINK-34112","OBJECT_ID":"2025-099T","EPOCH":"2025-12-16T05:03:41.705568","MEAN_MOTION":15.27577906,"ECCENTRICITY":0.00010045,"INCLINATION":43.0017,"RA_OF_ASC_NODE":287.2875,"ARG_OF_PERICENTER":263.3722,"MEAN_ANOMALY":96.7015,"EPHEMERIS_TYPE":0,"CLASSIFICATION_TYPE":"U","NORAD_CAT_ID":63969,"ELEMENT_SET_NO":999,"REV_AT_EPOCH":3457,"BSTAR":0.00065908509,"MEAN_MOTION_DOT":0.00017917,"MEAN_MOTION_DDOT":0},{"OBJECT_NAME":"STARLINK-34084","OBJECT_ID":"2025-099U","EPOCH":"2025-12-16T04:58:07.966560","MEAN_MOTION":15.27612281,"ECCENTRICITY":0.00012677,"INCLINATION":43.0014,"RA_OF_ASC_NODE":287.2571,"ARG_OF_PERICENTER":256.4153,"MEAN_ANOMALY":103.6557,"EPHEMERIS_TYPE":0,"CLASSIFICATION_TYPE":"U","NORAD_CAT_ID":63970,"ELEMENT_SET_NO":999,"REV_AT_EPOCH":3457,"BSTAR":0.00075770778,"MEAN_MOTION_DOT":0.00020667,"MEAN_MOTION_DDOT":0},{"OBJECT_NAME":"STARLINK-34138","OBJECT_ID":"2025-099V","EPOCH":"2025-12-16T04:07:13.963296","MEAN_MOTION":15.27596003,"ECCENTRICITY":0.00013681,"INCLINATION":43.0003,"RA_OF_ASC_NODE":284.3892,"ARG_OF_PERICENTER":268.3183,"MEAN_ANOMALY":91.7512,"EPHEMERIS_TYPE":0,"CLASSIFICATION_TYPE":"U","NORAD_CAT_ID":63971,"ELEMENT_SET_NO":999,"REV_AT_EPOCH":3460,"BSTAR":0.00075212509,"MEAN_MOTION_DOT":0.00020502,"MEAN_MOTION_DDOT":0},{"OBJECT_NAME":"STARLINK-34115","OBJECT_ID":"2025-099W","EPOCH":"2025-12-16T03:52:26.032224","MEAN_MOTION":15.27600439,"ECCENTRICITY":0.00012773,"INCLINATION":43.0006,"RA_OF_ASC_NODE":284.3143,"ARG_OF_PERICENTER":283.9922,"MEAN_ANOMALY":76.0788,"EPHEMERIS_TYPE":0,"CLASSIFICATION_TYPE":"U","NORAD_CAT_ID":63972,"ELEMENT_SET_NO":999,"REV_AT_EPOCH":3460,"BSTAR":0.00073717583,"MEAN_MOTION_DOT":0.00020091,"MEAN_MOTION_DDOT":0},{"OBJECT_NAME":"STARLINK-34028","OBJECT_ID":"2025-099X","EPOCH":"2025-12-16T04:34:59.185920","MEAN_MOTION":15.27597863,"ECCENTRICITY":0.0001164,"INCLINATION":43.0014,"RA_OF_ASC_NODE":284.5311,"ARG_OF_PERICENTER":270.4571,"MEAN_ANOMALY":89.6148,"EPHEMERIS_TYPE":0,"CLASSIFICATION_TYPE":"U","NORAD_CAT_ID":63973,"ELEMENT_SET_NO":999,"REV_AT_EPOCH":3460,"BSTAR":0.00051452453,"MEAN_MOTION_DOT":0.00013931,"MEAN_MOTION_DDOT":0}]
