STARLINK-34144          
1 63958U 25099G   25350.25072783  .00022563  00000+0  82632-3 0  9996
2 63958  43.0002 287.5956 0001292 269.7619  90.3084 15.27605136 34577
STARLINK-34099          
1 63959U 25099H   25350.19690760  .00015982  00000+0  58854-3 0  9997
2 63959  43.0001 288.0501 0000782 296.8375  63.2397 15.27608743 34564
STARLINK-34107          
1 63960U 25099J   25350.18148684  .00017089  00000+0  62874-3 0  9998
2 63960  42.9993 287.9352 0001335 260.4013  99.6688 15.27596927 34563
STARLINK-34121          
1 63961U 25099K   25350.24044771  .00017926  00000+0  65890-3 0  9999
2 63961  43.0006 287.5166 0001493 271.8986  88.1695 15.27603132 34579
STARLINK-34103          
1 63962U 25099L   25350.17120822  .00028332  00000+0  10343-2 0  9999
2 63962  43.0023 287.8567 0001469 276.7456  83.3228 15.27607665 34569
STARLINK-33801          
1 63963U 25099M   25350.22888383  .00018746  00000+0  68845-3 0  9998
2 63963  43.0027 287.4248 0001335 277.0408  83.0292 15.27605797 34572
STARLINK-34135          
1 63964U 25099N   25350.23274029  .00019788  00000+0  72611-3 0  9999
2 63964  43.0016 287.4566 0001344 266.4264  93.6434 15.27604780 34572
STARLINK-34147          
1 63965U 25099P   25350.22503066  .00016960  00000+0  62399-3 0  9996
2 63965  43.0022 287.3965 0001204 282.5429  77.5288 15.27602959 34573
STARLINK-33960          
1 63966U 25099Q   25350.22118283  .00028581  00000+0  10441-2 0  9992
2 63966  43.0036 287.3648 0001967 267.1618  92.9008 15.27580606 34577
STARLINK-34153          
1 63967U 25099R   25350.21475138  .00020839  00000+0  76413-3 0  9997
2 63967  42.9998 287.3178 0000472 306.6843  53.3965 15.27602448 34572
STARLINK-33963          
1 63968U 25099S   25350.21860408  .00014186  00000+0  52375-3 0  9995
2 63968  43.0032 287.3461 0001193 276.4528  83.6188 15.27598233 34573
STARLINK-34112          
1 63969U 25099T   25350.21089937  .00017917  00000+0  65909-3 0  9998
2 63969  43.0017 287.2875 0001004 263.3722  96.7015 15.27577906 34575
STARLINK-34084          
1 63970U 25099U   25350.20703665  .00020667  00000+0  75771-3 0  9994
2 63970  43.0014 287.2571 0001267 256.4153 103.6557 15.27612281 34574
STARLINK-34138          
1 63971U 25099V   25350.17168939  .00020502  00000+0  75213-3 0  9999
2 63971  43.0003 284.3892 0001368 268.3183  91.7512 15.27596003 34609
STARLINK-34115          
1 63972U 25099W   25350.16141241  .00020091  00000+0  73718-3 0  9997
2 63972  43.0006 284.3143 0001277 283.9922  76.0788 15.27600439 34605
STARLINK-34028          
1 63973U 25099X   25350.19096280  .00013931  00000+0  51452-3 0  9999
2 63973  43.0014 284.5311 0001164 270.4571  89.6148 15.27597863 34606
